[{"OBJECT_NAME":"QIANFAN-19","OBJECT_ID":"2024-185A","EPOCH":"2026-03-09T23:01:49.129824","MEAN_MOTION":14.14392209,"ECCENTRICITY":0.00082129,"INCLINATION":88.9763,"RA_OF_ASC_NODE":67.9253,"ARG_OF_PERICENTER":39.7684,"MEAN_ANOMALY":320.4104,"EPHEMERIS_TYPE":0,"CLASSIFICATION_TYPE":"U","NORAD_CAT_ID":61552,"ELEMENT_SET_NO":999,"REV_AT_EPOCH":8199,"BSTAR":0.00030187594,"MEAN_MOTION_DOT":5.92e-6,"MEAN_MOTION_DDOT":0},{"OBJECT_NAME":"SL-16 R\/B","OBJECT_ID":"1992-076B","EPOCH":"2026-03-09T18:38:19.817664","MEAN_MOTION":14.16859632,"ECCENTRICITY":0.00104648,"INCLINATION":71.0008,"RA_OF_ASC_NODE":188.1904,"ARG_OF_PERICENTER":96.2463,"MEAN_ANOMALY":13.0541,"EPHEMERIS_TYPE":0,"CLASSIFICATION_TYPE":"U","NORAD_CAT_ID":22220,"ELEMENT_SET_NO":999,"REV_AT_EPOCH":72184,"BSTAR":-6.2219185e-5,"MEAN_MOTION_DOT":-1.73e-6,"MEAN_MOTION_DDOT":0}]
